ONEWEB-0199             
1 48234U 21031AA  25138.59072387 -.00000224  00000+0 -63899-3 0  9995
2 48234  87.9058   8.1888 0001705  80.4562 279.6760 13.14504070196425
ONEWEB-0203             
1 48235U 21031AB  25138.58121347 -.00000182  00000+0 -52623-3 0  9992
2 48235  87.9062   8.1932 0001567  88.5816 271.5493 13.14505632196438
ONEWEB-0197             
1 48236U 21031AC  25138.55663796  .00000161  00000+0  39872-3 0  9995
2 48236  87.9051   8.2061 0002024  76.5436 283.5919 13.14500728196342
ONEWEB-0194             
1 48237U 21031AD  25138.61135903  .00000037  00000+0  66500-4 0  9998
2 48237  87.9062   8.1948 0001567  80.6283 279.5024 13.14502673196528
ONEWEB-0193             
1 48238U 21031AE  25138.62721484  .00000238  00000+0  60802-3 0  9996
2 48238  87.9062   8.1993 0001715  88.0052 272.1274 13.14503487196474
ONEWEB-0191             
1 48239U 21031AF  25138.63831538  .00000094  00000+0  21798-3 0  9991
2 48239  87.9060   8.1706 0001538  88.0224 272.1082 13.14502301196335
ONEWEB-0195             
1 48240U 21031AG  25138.61530381  .00000173  00000+0  43335-3 0  9992
2 48240  87.9058   8.1731 0001930  94.8054 265.3296 13.14506187196319
ONEWEB-0201             
1 48241U 21031AH  25138.60355361 -.00000038  00000+0 -13792-3 0  9991
2 48241  87.9059   8.2208 0002063  85.1725 274.9640 13.14503787196544
